{"fetched_at":"2026-03-29T02:12:04Z","count":15717,"tles":[{"name":"STARLINK-11362 [DTC]","line1":"1 61535U 24184D   26087.56388427  .00002445  00000+0  25024-4 0  9996","line2":"2 61535  53.1593 143.0789 0001272 110.5490 249.5665 15.69719947 83389","category":"Starlink"}]}